{"type":"FeatureCollection","features":[{"type":"Feature","geometry":{"type":"Polygon","coordinates":[[[-127.851645,57.73734],[-127.851646,57.733174],[-127.845396,57.733174],[-127.845397,57.729007],[-127.845399,57.724841],[-127.839149,57.724841],[-127.8329,57.724841],[-127.82665,57.724841],[-127.820401,57.724841],[-127.814152,57.724841],[-127.814151,57.729008],[-127.81415,57.733174],[-127.814149,57.737341],[-127.814148,57.741507],[-127.814147,57.745674],[-127.814146,57.749841],[-127.807897,57.749841],[-127.801647,57.749841],[-127.795398,57.749841],[-127.789149,57.749841],[-127.78915,57.754008],[-127.78915,57.758174],[-127.78915,57.762341],[-127.7954,57.762341],[-127.801649,57.762341],[-127.807898,57.762341],[-127.814147,57.762341],[-127.814147,57.766507],[-127.814148,57.770674],[-127.814148,57.77484],[-127.814148,57.779007],[-127.814149,57.783174],[-127.814149,57.78734],[-127.820398,57.78734],[-127.826647,57.78734],[-127.832897,57.78734],[-127.839146,57.78734],[-127.845395,57.78734],[-127.851644,57.78734],[-127.851644,57.783173],[-127.851644,57.779006],[-127.851643,57.77484],[-127.851643,57.770673],[-127.851642,57.766507],[-127.851642,57.76234],[-127.851642,57.758173],[-127.851641,57.754007],[-127.851641,57.74984],[-127.851642,57.745673],[-127.851643,57.741507],[-127.851645,57.73734]]]},"properties":{"tenure":1077649,"owner":"OMEGA PACIFIC RESOURCES INC","ha":1726.4,"issued":"2020-07-29","good_to":"2034-11-21","role":"subject"}},{"type":"Feature","geometry":{"type":"Polygon","coordinates":[[[-127.78915,57.754008],[-127.789149,57.749841],[-127.7829,57.749841],[-127.776651,57.749841],[-127.770402,57.749841],[-127.764153,57.749841],[-127.764154,57.745675],[-127.764155,57.741508],[-127.757906,57.741508],[-127.751657,57.741508],[-127.745407,57.741509],[-127.739158,57.741509],[-127.732909,57.741509],[-127.732908,57.745675],[-127.732907,57.749842],[-127.732907,57.754009],[-127.732908,57.758175],[-127.732908,57.762342],[-127.732908,57.766508],[-127.732909,57.770675],[-127.739158,57.770675],[-127.739158,57.766508],[-127.739157,57.762342],[-127.745406,57.762342],[-127.751656,57.762341],[-127.757905,57.762342],[-127.764154,57.762341],[-127.770403,57.762341],[-127.776652,57.762341],[-127.782901,57.762341],[-127.78915,57.762341],[-127.78915,57.758174],[-127.78915,57.754008]]]},"properties":{"tenure":502768,"owner":"OMEGA PACIFIC RESOURCES INC","ha":673.4,"issued":"2005-01-13","good_to":"2034-11-21","role":"subject"}},{"type":"Feature","geometry":{"type":"Polygon","coordinates":[[[-127.895387,57.749839],[-127.895388,57.745673],[-127.889139,57.745673],[-127.882889,57.745673],[-127.87664,57.745673],[-127.87039,57.745673],[-127.864141,57.745673],[-127.857892,57.745673],[-127.851642,57.745673],[-127.851641,57.74984],[-127.851641,57.754007],[-127.851642,57.758173],[-127.851642,57.76234],[-127.851642,57.766507],[-127.851643,57.770673],[-127.851643,57.77484],[-127.851644,57.779006],[-127.851644,57.783173],[-127.851644,57.78734],[-127.857894,57.78734],[-127.864143,57.78734],[-127.870392,57.78734],[-127.876641,57.787339],[-127.882891,57.787339],[-127.88914,57.787339],[-127.895389,57.787339],[-127.895389,57.783173],[-127.895389,57.779006],[-127.895388,57.774839],[-127.895388,57.770673],[-127.895388,57.766506],[-127.895388,57.762339],[-127.895387,57.758173],[-127.895387,57.754006],[-127.895387,57.749839]]]},"properties":{"tenure":1081780,"owner":"OMEGA PACIFIC RESOURCES INC","ha":1208.2,"issued":"2021-03-22","good_to":"2034-11-21","role":"subject"}},{"type":"Feature","geometry":{"type":"Polygon","coordinates":[[[-127.814147,57.766507],[-127.814147,57.762341],[-127.807898,57.762341],[-127.801649,57.762341],[-127.7954,57.762341],[-127.78915,57.762341],[-127.782901,57.762341],[-127.776652,57.762341],[-127.770403,57.762341],[-127.764154,57.762341],[-127.757905,57.762342],[-127.751656,57.762341],[-127.745406,57.762342],[-127.739157,57.762342],[-127.739158,57.766508],[-127.739158,57.770675],[-127.739158,57.774841],[-127.739159,57.779008],[-127.739159,57.783175],[-127.739159,57.787341],[-127.73916,57.791508],[-127.745409,57.791508],[-127.751658,57.791508],[-127.757907,57.791508],[-127.764157,57.791508],[-127.770406,57.791508],[-127.776655,57.791507],[-127.782904,57.791508],[-127.789153,57.791507],[-127.795402,57.791507],[-127.801651,57.791507],[-127.8079,57.791507],[-127.81415,57.791507],[-127.814149,57.78734],[-127.814149,57.783174],[-127.814148,57.779007],[-127.814148,57.77484],[-127.814148,57.770674],[-127.814147,57.766507]]]},"properties":{"tenure":502764,"owner":"OMEGA PACIFIC RESOURCES INC","ha":1449.4,"issued":"2005-01-13","good_to":"2034-11-21","role":"subject"}},{"type":"Feature","geometry":{"type":"Polygon","coordinates":[[[-127.695414,57.783175],[-127.695413,57.779008],[-127.689164,57.779008],[-127.682915,57.779009],[-127.676666,57.779008],[-127.670416,57.779009],[-127.664167,57.779008],[-127.657917,57.779008],[-127.651668,57.779008],[-127.645418,57.779008],[-127.639169,57.779008],[-127.639169,57.783175],[-127.63917,57.787341],[-127.63917,57.791508],[-127.639171,57.795674],[-127.639171,57.799841],[-127.639171,57.804008],[-127.639172,57.808174],[-127.639172,57.812341],[-127.639173,57.816507],[-127.639173,57.820674],[-127.639173,57.82484],[-127.645423,57.824841],[-127.651672,57.824841],[-127.657921,57.824841],[-127.664171,57.824841],[-127.67042,57.824841],[-127.676669,57.824841],[-127.682919,57.824841],[-127.689168,57.824841],[-127.695417,57.824841],[-127.695417,57.820674],[-127.695417,57.816508],[-127.695416,57.812341],[-127.695416,57.808175],[-127.695416,57.804008],[-127.695415,57.799841],[-127.695415,57.795675],[-127.695415,57.791508],[-127.695414,57.787342],[-127.695414,57.783175]]]},"properties":{"tenure":1113072,"owner":"OMEGA PACIFIC RESOURCES INC","ha":1707.1,"issued":"2024-05-22","good_to":"2034-11-21","role":"subject"}},{"type":"Feature","geometry":{"type":"Polygon","coordinates":[[[-127.739159,57.783175],[-127.739159,57.779008],[-127.732909,57.779008],[-127.72666,57.779008],[-127.720411,57.779008],[-127.714161,57.779008],[-127.707912,57.779008],[-127.701663,57.779008],[-127.695413,57.779008],[-127.695414,57.783175],[-127.695414,57.787342],[-127.695415,57.791508],[-127.695415,57.795675],[-127.695415,57.799841],[-127.695416,57.804008],[-127.695416,57.808175],[-127.695416,57.812341],[-127.701666,57.812341],[-127.707915,57.812341],[-127.714164,57.812341],[-127.720414,57.812341],[-127.726663,57.812341],[-127.732912,57.812341],[-127.739161,57.812341],[-127.739161,57.808174],[-127.739161,57.804008],[-127.73916,57.799841],[-127.73916,57.795674],[-127.73916,57.791508],[-127.739159,57.787341],[-127.739159,57.783175]]]},"properties":{"tenure":502773,"owner":"OMEGA PACIFIC RESOURCES INC","ha":965.8,"issued":"2005-01-13","good_to":"2034-11-21","role":"subject"}},{"type":"Feature","geometry":{"type":"Polygon","coordinates":[[[-127.832897,57.791507],[-127.832897,57.78734],[-127.826647,57.78734],[-127.820398,57.78734],[-127.814149,57.78734],[-127.81415,57.791507],[-127.8079,57.791507],[-127.801651,57.791507],[-127.795402,57.791507],[-127.789153,57.791507],[-127.782904,57.791508],[-127.782904,57.795674],[-127.782905,57.799841],[-127.782905,57.804007],[-127.789154,57.804007],[-127.789155,57.808174],[-127.789155,57.81234],[-127.789155,57.816507],[-127.782906,57.816507],[-127.782907,57.820674],[-127.776657,57.820674],[-127.770408,57.820674],[-127.764159,57.820674],[-127.75791,57.820674],[-127.751661,57.820674],[-127.751661,57.824841],[-127.751662,57.829007],[-127.751662,57.833174],[-127.757911,57.833174],[-127.76416,57.833174],[-127.770409,57.833174],[-127.776659,57.833174],[-127.782908,57.833174],[-127.789157,57.833174],[-127.795406,57.833174],[-127.801655,57.833173],[-127.807904,57.833174],[-127.814153,57.833173],[-127.820403,57.833173],[-127.826652,57.833173],[-127.832901,57.833173],[-127.832901,57.829007],[-127.8329,57.82484],[-127.8329,57.820673],[-127.832899,57.816507],[-127.832899,57.81234],[-127.832899,57.808173],[-127.832898,57.804007],[-127.832898,57.79984],[-127.832897,57.795673],[-127.832897,57.791507]]]},"properties":{"tenure":1104314,"owner":"OMEGA PACIFIC RESOURCES INC","ha":1637.5,"issued":"2023-05-21","good_to":"2034-11-21","role":"subject"}},{"type":"Feature","geometry":{"type":"Polygon","coordinates":[[[-127.782904,57.795674],[-127.782904,57.791508],[-127.776655,57.791507],[-127.770406,57.791508],[-127.764157,57.791508],[-127.757907,57.791508],[-127.751658,57.791508],[-127.745409,57.791508],[-127.73916,57.791508],[-127.73916,57.795674],[-127.73916,57.799841],[-127.739161,57.804008],[-127.739161,57.808174],[-127.739161,57.812341],[-127.739162,57.816508],[-127.739162,57.820674],[-127.745411,57.820674],[-127.751661,57.820674],[-127.75791,57.820674],[-127.764159,57.820674],[-127.770408,57.820674],[-127.776657,57.820674],[-127.782907,57.820674],[-127.782906,57.816507],[-127.782906,57.812341],[-127.782905,57.808174],[-127.782905,57.804007],[-127.782905,57.799841],[-127.782904,57.795674]]]},"properties":{"tenure":502770,"owner":"OMEGA PACIFIC RESOURCES INC","ha":844.8,"issued":"2005-01-13","good_to":"2034-11-21","role":"subject"}},{"type":"Feature","geometry":{"type":"Polygon","coordinates":[[[-127.789155,57.808174],[-127.789154,57.804007],[-127.782905,57.804007],[-127.782905,57.808174],[-127.782906,57.812341],[-127.782906,57.816507],[-127.789155,57.816507],[-127.789155,57.81234],[-127.789155,57.808174]]]},"properties":{"tenure":1112095,"owner":"OMEGA PACIFIC RESOURCES INC","ha":51.7,"issued":"2024-03-24","good_to":"2034-11-21","role":"subject"}},{"type":"Feature","geometry":{"type":"Polygon","coordinates":[[[-127.745411,57.820674],[-127.739162,57.820674],[-127.739162,57.816508],[-127.739161,57.812341],[-127.732912,57.812341],[-127.726663,57.812341],[-127.720414,57.812341],[-127.714164,57.812341],[-127.707915,57.812341],[-127.701666,57.812341],[-127.695416,57.812341],[-127.695417,57.816508],[-127.695417,57.820674],[-127.695417,57.824841],[-127.701667,57.824841],[-127.707916,57.824841],[-127.714165,57.824841],[-127.720415,57.824841],[-127.726664,57.824841],[-127.732913,57.824841],[-127.739163,57.824841],[-127.745412,57.824841],[-127.751661,57.824841],[-127.751661,57.820674],[-127.745411,57.820674]]]},"properties":{"tenure":502774,"owner":"OMEGA PACIFIC RESOURCES INC","ha":396.4,"issued":"2005-01-13","good_to":"2034-11-21","role":"subject"}},{"type":"Feature","geometry":{"type":"Polygon","coordinates":[[[-127.814151,57.729008],[-127.814152,57.724841],[-127.807903,57.724841],[-127.801654,57.724841],[-127.795405,57.724842],[-127.789155,57.724841],[-127.782906,57.724842],[-127.776657,57.724842],[-127.770408,57.724842],[-127.764159,57.724842],[-127.764158,57.729008],[-127.764157,57.733175],[-127.764156,57.737342],[-127.764155,57.741508],[-127.764154,57.745675],[-127.764153,57.749841],[-127.770402,57.749841],[-127.776651,57.749841],[-127.7829,57.749841],[-127.789149,57.749841],[-127.795398,57.749841],[-127.801647,57.749841],[-127.807897,57.749841],[-127.814146,57.749841],[-127.814147,57.745674],[-127.814148,57.741507],[-127.814149,57.737341],[-127.81415,57.733174],[-127.814151,57.729008]]]},"properties":{"tenure":502766,"owner":"OMEGA PACIFIC RESOURCES INC","ha":829.1,"issued":"2005-01-13","good_to":"2034-11-21","role":"subject"}}],"meta":{"synthetic":false,"subject":"OMEGA PACIFIC RESOURCES INC","subject_tenures":11,"subject_ha":11489.8,"as_of":"2026-09-01T21:27:30.103Z","source":"WHSE_MINERAL_TENURE.MTA_ACQUIRED_TENURE_SVW","licence":"Open Government Licence \u2013 British Columbia","adjacent_holders":[["PROSPECT RIDGE RESOURCES CORP.",2914.4],["THESIS GOLD & SILVER INC.",987.1],["EAGLE PLAINS RESOURCES LTD.",969.8],["BOT, JOHN CHRISOSTOM",724.5],["SCOTT, STEVEN JEFFREY",34.5]]}}